KUIPER-00130            
1 65959U 25228N   25316.97214100  .00053843  00000+0  15645-2 0  9999
2 65959  51.8814 164.0337 0006393 255.5228 104.5049 15.34929491  5844
KUIPER-00134            
1 65960U 25228P   25316.90879830  .00049799  00000+0  14511-2 0  9997
2 65960  51.8814 164.3587 0005733 257.2442 102.7904 15.34877913  5830
KUIPER-00135            
1 65961U 25228Q   25316.58288773  .00054769  00000+0  15929-2 0  9999
2 65961  51.8773 165.9354 0003856 239.8289 120.2315 15.34903323  5783
KUIPER-00136            
1 65962U 25228R   25316.57541091  .00060757  00000+0  17491-2 0  9994
2 65962  51.8753 165.8843 0004091 231.5110 128.5509 15.35176694  5788
KUIPER-00137            
1 65963U 25228S   25316.84274677  .00079705  00000+0  23099-2 0  9992
2 65963  51.8795 164.6754 0004794 249.0780 110.9693 15.34840177  5827
KUIPER-00138            
1 65964U 25228T   25316.97663514  .00082046  00000+0  23846-2 0  9991
2 65964  51.8821 164.0660 0007484 265.8231  94.1899 15.34721338  5844
KUIPER-00140            
1 65965U 25228U   25316.97775015  .00048816  00000+0  14416-2 0  9992
2 65965  51.8834 164.0757 0006887 264.2977  95.7223 15.34460761  5840
KUIPER-00141            
1 65966U 25228V   25316.96893532  .00053054  00000+0  15323-2 0  9995
2 65966  51.8813 164.0131 0006416 248.1803 111.8500 15.35125022  5848
KUIPER-00146            
1 65967U 25228W   25317.16546573  .00049069  00000+0  14296-2 0  9998
2 65967  51.8768 163.0898 0006602 245.9363 114.0932 15.34884647  5871
KUIPER-00149            
1 65968U 25228X   25317.16135793  .00065742  00000+0  18849-2 0  9991
2 65968  51.8789 163.0560 0005531 239.9132 120.1306 15.35263913  5879
KUIPER-00154            
1 65969U 25228Y   25316.96499293  .00051257  00000+0  14812-2 0  9999
2 65969  51.8748 163.9908 0006206 237.4960 122.5426 15.35124236  5842
KUIPER-00157            
1 65970U 25228Z   25316.97399479  .00062590  00000+0  18242-2 0  9990
2 65970  51.8818 164.0546 0006748 272.5745  87.4468 15.34764190  5847
