CCSDS_OMM_VERS = 2.0
CREATION_DATE  = 
ORIGINATOR     = 

OBJECT_NAME    = KUIPER-00130
OBJECT_ID      = 2025-228N
CENTER_NAME    = EARTH
REF_FRAME      = TEME
TIME_SYSTEM    = UTC
MEAN_ELEMENT_THEORY = SGP/SGP4

EPOCH          = 2025-11-12T23:19:52.982400
MEAN_MOTION    = 15.34929491
ECCENTRICITY   = .00063928
INCLINATION    = 51.8814
RA_OF_ASC_NODE = 164.0337
ARG_OF_PERICENTER = 255.5228
MEAN_ANOMALY   = 104.5049

EPHEMERIS_TYPE = 0
CLASSIFICATION_TYPE = U
NORAD_CAT_ID   = 65959
ELEMENT_SET_NO = 999
REV_AT_EPOCH   = 584
BSTAR          = .15645058E-2
MEAN_MOTION_DOT = .53843E-3
MEAN_MOTION_DDOT = 0

CCSDS_OMM_VERS = 2.0
CREATION_DATE  = 
ORIGINATOR     = 

OBJECT_NAME    = KUIPER-00134
OBJECT_ID      = 2025-228P
CENTER_NAME    = EARTH
REF_FRAME      = TEME
TIME_SYSTEM    = UTC
MEAN_ELEMENT_THEORY = SGP/SGP4

EPOCH          = 2025-11-12T21:48:40.173120
MEAN_MOTION    = 15.34877913
ECCENTRICITY   = .0005733
INCLINATION    = 51.8814
RA_OF_ASC_NODE = 164.3587
ARG_OF_PERICENTER = 257.2442
MEAN_ANOMALY   = 102.7904

EPHEMERIS_TYPE = 0
CLASSIFICATION_TYPE = U
NORAD_CAT_ID   = 65960
ELEMENT_SET_NO = 999
REV_AT_EPOCH   = 583
BSTAR          = .14511E-2
MEAN_MOTION_DOT = .49799E-3
MEAN_MOTION_DDOT = 0

CCSDS_OMM_VERS = 2.0
CREATION_DATE  = 
ORIGINATOR     = 

OBJECT_NAME    = KUIPER-00135
OBJECT_ID      = 2025-228Q
CENTER_NAME    = EARTH
REF_FRAME      = TEME
TIME_SYSTEM    = UTC
MEAN_ELEMENT_THEORY = SGP/SGP4

EPOCH          = 2025-11-12T13:59:21.499872
MEAN_MOTION    = 15.34903323
ECCENTRICITY   = .00038562
INCLINATION    = 51.8773
RA_OF_ASC_NODE = 165.9354
ARG_OF_PERICENTER = 239.8289
MEAN_ANOMALY   = 120.2315

EPHEMERIS_TYPE = 0
CLASSIFICATION_TYPE = U
NORAD_CAT_ID   = 65961
ELEMENT_SET_NO = 999
REV_AT_EPOCH   = 578
BSTAR          = .15929008E-2
MEAN_MOTION_DOT = .54769E-3
MEAN_MOTION_DDOT = 0

CCSDS_OMM_VERS = 2.0
CREATION_DATE  = 
ORIGINATOR     = 

OBJECT_NAME    = KUIPER-00136
OBJECT_ID      = 2025-228R
CENTER_NAME    = EARTH
REF_FRAME      = TEME
TIME_SYSTEM    = UTC
MEAN_ELEMENT_THEORY = SGP/SGP4

EPOCH          = 2025-11-12T13:48:35.502624
MEAN_MOTION    = 15.35176694
ECCENTRICITY   = .00040919
INCLINATION    = 51.8753
RA_OF_ASC_NODE = 165.8843
ARG_OF_PERICENTER = 231.5110
MEAN_ANOMALY   = 128.5509

EPHEMERIS_TYPE = 0
CLASSIFICATION_TYPE = U
NORAD_CAT_ID   = 65962
ELEMENT_SET_NO = 999
REV_AT_EPOCH   = 578
BSTAR          = .17491192E-2
MEAN_MOTION_DOT = .60757E-3
MEAN_MOTION_DDOT = 0

CCSDS_OMM_VERS = 2.0
CREATION_DATE  = 
ORIGINATOR     = 

OBJECT_NAME    = KUIPER-00137
OBJECT_ID      = 2025-228S
CENTER_NAME    = EARTH
REF_FRAME      = TEME
TIME_SYSTEM    = UTC
MEAN_ELEMENT_THEORY = SGP/SGP4

EPOCH          = 2025-11-12T20:13:33.320928
MEAN_MOTION    = 15.34840177
ECCENTRICITY   = .00047948
INCLINATION    = 51.8795
RA_OF_ASC_NODE = 164.6754
ARG_OF_PERICENTER = 249.0780
MEAN_ANOMALY   = 110.9693

EPHEMERIS_TYPE = 0
CLASSIFICATION_TYPE = U
NORAD_CAT_ID   = 65963
ELEMENT_SET_NO = 999
REV_AT_EPOCH   = 582
BSTAR          = .23099226E-2
MEAN_MOTION_DOT = .79705E-3
MEAN_MOTION_DDOT = 0

CCSDS_OMM_VERS = 2.0
CREATION_DATE  = 
ORIGINATOR     = 

OBJECT_NAME    = KUIPER-00138
OBJECT_ID      = 2025-228T
CENTER_NAME    = EARTH
REF_FRAME      = TEME
TIME_SYSTEM    = UTC
MEAN_ELEMENT_THEORY = SGP/SGP4

EPOCH          = 2025-11-12T23:26:21.276960
MEAN_MOTION    = 15.34721339
ECCENTRICITY   = .00074838
INCLINATION    = 51.8821
RA_OF_ASC_NODE = 164.0660
ARG_OF_PERICENTER = 265.8231
MEAN_ANOMALY   = 94.1899

EPHEMERIS_TYPE = 0
CLASSIFICATION_TYPE = U
NORAD_CAT_ID   = 65964
ELEMENT_SET_NO = 999
REV_AT_EPOCH   = 584
BSTAR          = .23845925E-2
MEAN_MOTION_DOT = .82046E-3
MEAN_MOTION_DDOT = 0

CCSDS_OMM_VERS = 2.0
CREATION_DATE  = 
ORIGINATOR     = 

OBJECT_NAME    = KUIPER-00140
OBJECT_ID      = 2025-228U
CENTER_NAME    = EARTH
REF_FRAME      = TEME
TIME_SYSTEM    = UTC
MEAN_ELEMENT_THEORY = SGP/SGP4

EPOCH          = 2025-11-12T23:27:57.613824
MEAN_MOTION    = 15.34460761
ECCENTRICITY   = .00068875
INCLINATION    = 51.8834
RA_OF_ASC_NODE = 164.0757
ARG_OF_PERICENTER = 264.2977
MEAN_ANOMALY   = 95.7223

EPHEMERIS_TYPE = 0
CLASSIFICATION_TYPE = U
NORAD_CAT_ID   = 65965
ELEMENT_SET_NO = 999
REV_AT_EPOCH   = 584
BSTAR          = .14415588E-2
MEAN_MOTION_DOT = .48816E-3
MEAN_MOTION_DDOT = 0

CCSDS_OMM_VERS = 2.0
CREATION_DATE  = 
ORIGINATOR     = 

OBJECT_NAME    = KUIPER-00141
OBJECT_ID      = 2025-228V
CENTER_NAME    = EARTH
REF_FRAME      = TEME
TIME_SYSTEM    = UTC
MEAN_ELEMENT_THEORY = SGP/SGP4

EPOCH          = 2025-11-12T23:15:16.011648
MEAN_MOTION    = 15.35125022
ECCENTRICITY   = .0006416
INCLINATION    = 51.8813
RA_OF_ASC_NODE = 164.0131
ARG_OF_PERICENTER = 248.1803
MEAN_ANOMALY   = 111.8500

EPHEMERIS_TYPE = 0
CLASSIFICATION_TYPE = U
NORAD_CAT_ID   = 65966
ELEMENT_SET_NO = 999
REV_AT_EPOCH   = 584
BSTAR          = .15323E-2
MEAN_MOTION_DOT = .53054E-3
MEAN_MOTION_DDOT = 0

CCSDS_OMM_VERS = 2.0
CREATION_DATE  = 
ORIGINATOR     = 

OBJECT_NAME    = KUIPER-00146
OBJECT_ID      = 2025-228W
CENTER_NAME    = EARTH
REF_FRAME      = TEME
TIME_SYSTEM    = UTC
MEAN_ELEMENT_THEORY = SGP/SGP4

EPOCH          = 2025-11-13T03:58:16.239072
MEAN_MOTION    = 15.34884647
ECCENTRICITY   = .0006602
INCLINATION    = 51.8768
RA_OF_ASC_NODE = 163.0898
ARG_OF_PERICENTER = 245.9363
MEAN_ANOMALY   = 114.0932

EPHEMERIS_TYPE = 0
CLASSIFICATION_TYPE = U
NORAD_CAT_ID   = 65967
ELEMENT_SET_NO = 999
REV_AT_EPOCH   = 587
BSTAR          = .14296159E-2
MEAN_MOTION_DOT = .49069E-3
MEAN_MOTION_DDOT = 0

CCSDS_OMM_VERS = 2.0
CREATION_DATE  = 
ORIGINATOR     = 

OBJECT_NAME    = KUIPER-00149
OBJECT_ID      = 2025-228X
CENTER_NAME    = EARTH
REF_FRAME      = TEME
TIME_SYSTEM    = UTC
MEAN_ELEMENT_THEORY = SGP/SGP4

EPOCH          = 2025-11-13T03:52:21.325152
MEAN_MOTION    = 15.35263913
ECCENTRICITY   = .00055308
INCLINATION    = 51.8789
RA_OF_ASC_NODE = 163.0560
ARG_OF_PERICENTER = 239.9132
MEAN_ANOMALY   = 120.1306

EPHEMERIS_TYPE = 0
CLASSIFICATION_TYPE = U
NORAD_CAT_ID   = 65968
ELEMENT_SET_NO = 999
REV_AT_EPOCH   = 587
BSTAR          = .18848999E-2
MEAN_MOTION_DOT = .65742E-3
MEAN_MOTION_DDOT = 0

CCSDS_OMM_VERS = 2.0
CREATION_DATE  = 
ORIGINATOR     = 

OBJECT_NAME    = KUIPER-00154
OBJECT_ID      = 2025-228Y
CENTER_NAME    = EARTH
REF_FRAME      = TEME
TIME_SYSTEM    = UTC
MEAN_ELEMENT_THEORY = SGP/SGP4

EPOCH          = 2025-11-12T23:09:35.389152
MEAN_MOTION    = 15.35124236
ECCENTRICITY   = .0006206
INCLINATION    = 51.8748
RA_OF_ASC_NODE = 163.9908
ARG_OF_PERICENTER = 237.4960
MEAN_ANOMALY   = 122.5426

EPHEMERIS_TYPE = 0
CLASSIFICATION_TYPE = U
NORAD_CAT_ID   = 65969
ELEMENT_SET_NO = 999
REV_AT_EPOCH   = 584
BSTAR          = .14812E-2
MEAN_MOTION_DOT = .51257E-3
MEAN_MOTION_DDOT = 0

CCSDS_OMM_VERS = 2.0
CREATION_DATE  = 
ORIGINATOR     = 

OBJECT_NAME    = KUIPER-00157
OBJECT_ID      = 2025-228Z
CENTER_NAME    = EARTH
REF_FRAME      = TEME
TIME_SYSTEM    = UTC
MEAN_ELEMENT_THEORY = SGP/SGP4

EPOCH          = 2025-11-12T23:22:33.150720
MEAN_MOTION    = 15.34764190
ECCENTRICITY   = .00067484
INCLINATION    = 51.8818
RA_OF_ASC_NODE = 164.0546
ARG_OF_PERICENTER = 272.5745
MEAN_ANOMALY   = 87.4468

EPHEMERIS_TYPE = 0
CLASSIFICATION_TYPE = U
NORAD_CAT_ID   = 65970
ELEMENT_SET_NO = 999
REV_AT_EPOCH   = 584
BSTAR          = .18242139E-2
MEAN_MOTION_DOT = .6259E-3
MEAN_MOTION_DDOT = 0

